NORAD_CAT_ID,OBJECT_NAME,OBJECT_TYPE,EPOCH,MEAN_MOTION,ECCENTRICITY,INCLINATION,RA_OF_ASC_NODE,ARG_OF_PERICENTER,MEAN_ANOMALY,BSTAR,MEAN_MOTION_DOT,MEAN_MOTION_DDOT,TLE_LINE0,TLE_LINE1,TLE_LINE2,SEMIMAJOR_AXIS,PERIOD,APOGEE,PERIGEE,DECAYED
53575.0,STARLINK-4551,PAYLOAD,2023-07-31 11:00:48,15.08837586,9.82e-05,53.2179,8.6402,83.4523,276.6581,-5.4854e-06,-3.75e-06,0.0,0 STARLINK-4551,1 53575U 22101BA  23212.45889259 -.00000375  00000-0 -54854-5 0  9999,2 53575  53.2179   8.6402 0000982  83.4523 276.6581 15.08837586 52696,6917.888,95.438,540.432,539.073,0.0
53575.0,STARLINK-4551,PAYLOAD,2023-07-31 17:22:20,15.08845897,9.39e-05,53.2182,7.4509,84.1481,275.9618,3.4451e-05,2.61e-06,0.0,0 STARLINK-4551,1 53575U 22101BA  23212.72384649  .00000261  00000-0  34451-4 0  9994,2 53575  53.2182   7.4509 0000939  84.1481 275.9618 15.08845897 52730,6917.862,95.437,540.377,539.078,0.0
53575.0,STARLINK-4551,PAYLOAD,2023-08-01 17:13:08,15.08833742,8.8e-05,53.218,2.9906,77.0886,283.0204,3.3084e-05,2.39e-06,0.0,0 STARLINK-4551,1 53575U 22101BA  23213.71745664  .00000239  00000-0  33084-4 0  9998,2 53575  53.2180   2.9906 0000880  77.0886 283.0204 15.08833742 52887,6917.9,95.438,540.373,539.156,0.0
53575.0,STARLINK-4551,PAYLOAD,2023-08-02 17:03:54,15.08847903,9.43e-05,53.2178,358.5298,79.9409,280.1689,0.00011025,1.468e-05,0.0,0 STARLINK-4551,1 53575U 22101BA  23214.71104750  .00001468  00000-0  11025-3 0  9999,2 53575  53.2178 358.5298 0000943  79.9409 280.1689 15.08847903 53037,6917.856,95.437,540.374,539.069,0.0
53575.0,STARLINK-4551,PAYLOAD,2023-08-03 10:33:09,15.08833648,0.0001399,53.2168,355.2564,100.9921,259.1229,0.00018465,2.651e-05,0.0,0 STARLINK-4551,1 53575U 22101BA  23215.43969293  .00002651  00000-0  18465-3 0  9990,2 53575  53.2168 355.2564 0001399 100.9921 259.1229 15.08833648 53145,6917.9,95.438,540.733,538.797,0.0
53575.0,STARLINK-4551,PAYLOAD,2023-08-04 16:45:29,15.08843033,0.000106,53.2185,349.6095,76.7652,283.3458,1.9219e-05,1.8e-07,0.0,0 STARLINK-4551,1 53575U 22101BA  23216.69825459  .00000018  00000-0  19219-4 0  9998,2 53575  53.2185 349.6095 0001060  76.7652 283.3458 15.08843033 53339,6917.871,95.437,540.469,539.003,0.0
53575.0,STARLINK-4551,PAYLOAD,2023-08-05 15:00:52,15.0884961,0.0001504,53.218,345.445,56.9881,303.1255,0.00011334,1.517e-05,0.0,0 STARLINK-4551,1 53575U 22101BA  23217.62560680  .00001517  00000-0  11334-3 0  9998,2 53575  53.2180 345.4450 0001504  56.9881 303.1255 15.08849610 53478,6917.851,95.437,540.756,538.676,0.0
53575.0,STARLINK-4551,PAYLOAD,2023-08-06 02:08:34,15.08839113,0.0001065,53.2185,343.3652,86.9555,273.1559,7.1858e-05,8.56e-06,0.0,0 STARLINK-4551,1 53575U 22101BA  23218.08929236  .00000856  00000-0  71858-4 0  9998,2 53575  53.2185 343.3652 0001065  86.9555 273.1559 15.08839113 53545,6917.883,95.438,540.485,539.011,0.0
53575.0,STARLINK-4551,PAYLOAD,2023-08-06 08:30:09,15.08814666,0.0001066,53.2179,342.1736,112.2605,247.85,-0.00017429,-3.059e-05,0.0,0 STARLINK-4551,1 53575U 22101BA  23218.35427642 -.00003059  00000-0 -17429-3 0  9995,2 53575  53.2179 342.1736 0001066 112.2605 247.8500 15.08814666 53582,6917.958,95.439,540.56,539.085,0.0
53575.0,STARLINK-4551,PAYLOAD,2023-08-06 18:02:28,15.08819428,0.0001185,53.2188,340.3908,106.629,253.4833,-0.0001028,-1.923e-05,0.0,0 STARLINK-4551,1 53575U 22101BA  23218.75171810 -.00001923  00000-0 -10280-3 0  9998,2 53575  53.2188 340.3908 0001185 106.6290 253.4833 15.08819428 53642,6917.943,95.439,540.628,538.988,0.0
53575.0,STARLINK-4551,PAYLOAD,2023-08-07 08:20:56,15.08837232,8.19e-05,53.2195,337.7159,105.6512,254.4571,-0.0001154,-2.124e-05,0.0,0 STARLINK-4551,1 53575U 22101BA  23219.34787138 -.00002124  00000-0 -11540-3 0  9994,2 53575  53.2195 337.7159 0000819 105.6512 254.4571 15.08837232 53730,6917.889,95.438,540.32,539.187,0.0
53575.0,STARLINK-4551,PAYLOAD,2023-08-07 14:42:28,15.08846757,0.0001001,53.2187,336.526,97.327,262.7836,-2.3675e-05,-6.65e-06,0.0,0 STARLINK-4551,1 53575U 22101BA  23219.61282409 -.00000665  00000-0 -23675-4 0  9996,2 53575  53.2187 336.5260 0001001  97.3270 262.7836 15.08846757 53775,6917.86,95.437,540.417,539.032,0.0
53575.0,STARLINK-4551,PAYLOAD,2023-08-08 00:14:46,15.0885261,0.0001207,53.2188,334.742,137.3418,222.7668,-6.7547e-06,-3.95e-06,0.0,0 STARLINK-4551,1 53575U 22101BA  23220.01025769 -.00000395  00000-0 -67547-5 0  9993,2 53575  53.2188 334.7420 0001207 137.3418 222.7668 15.08852610 53832,6917.842,95.437,540.542,538.872,0.0
53575.0,STARLINK-4551,PAYLOAD,2023-08-08 06:36:19,15.08841316,0.0001008,53.2176,333.552,104.8734,255.2369,0.00058766,9.077e-05,0.0,0 STARLINK-4551,1 53575U 22101BA  23220.27523130  .00009077  00000-0  58766-3 0  9991,2 53575  53.2176 333.5520 0001008 104.8734 255.2369 15.08841316 53870,6917.876,95.437,540.439,539.044,0.0
53575.0,STARLINK-4551,PAYLOAD,2023-08-08 14:33:15,15.08858068,0.0001006,53.2176,332.0659,103.0234,257.087,0.00072461,0.00011269,0.0,0 STARLINK-4551,1 53575U 22101BA  23220.60642386  .00011269  00000-0  72461-3 0  9997,2 53575  53.2176 332.0659 0001006 103.0234 257.0870 15.08858068 53926,6917.825,95.436,540.386,538.994,0.0
53575.0,STARLINK-4551,PAYLOAD,2023-08-09 08:02:29,15.08849544,6.77e-05,53.2172,328.7941,93.2558,266.8512,8.3221e-05,1.037e-05,0.0,0 STARLINK-4551,1 53575U 22101BA  23221.33506310  .00001037  00000-0  83221-4 0  9993,2 53575  53.2172 328.7941 0000677  93.2558 266.8512 15.08849544 54033,6917.851,95.437,540.185,539.248,0.0
53575.0,STARLINK-4551,PAYLOAD,2023-08-09 12:48:38,15.08842966,7.89e-05,53.2173,327.9015,82.1108,277.9974,-9.5627e-05,-1.809e-05,0.0,0 STARLINK-4551,1 53575U 22101BA  23221.53378407 -.00001809  00000-0 -95627-4 0  9991,2 53575  53.2173 327.9015 0000789  82.1108 277.9974 15.08842966 54068,6917.871,95.437,540.282,539.191,0.0
53575.0,STARLINK-4551,PAYLOAD,2023-08-10 14:14:48,15.08852573,9.11e-05,53.2178,323.1439,94.2898,265.8199,4.5755e-05,4.41e-06,0.0,0 STARLINK-4551,1 53575U 22101BA  23222.59361924  .00000441  00000-0  45755-4 0  9990,2 53575  53.2178 323.1439 0000911  94.2898 265.8199 15.08852573 54226,6917.842,95.437,540.337,539.077,0.0
53575.0,STARLINK-4551,PAYLOAD,2023-08-11 07:44:03,15.08837686,0.0001046,53.2183,319.8742,79.66,280.451,0.00015662,2.206e-05,0.0,0 STARLINK-4551,1 53575U 22101BA  23223.32226754  .00002206  00000-0  15662-3 0  9997,2 53575  53.2183 319.8742 0001046  79.6600 280.4510 15.08837686 54339,6917.887,95.438,540.476,539.029,0.0
53575.0,STARLINK-4551,PAYLOAD,2023-08-12 10:45:37,15.08842293,0.0001182,53.2186,314.8195,76.3529,283.7595,3.9803e-05,3.46e-06,0.0,0 STARLINK-4551,1 53575U 22101BA  23224.44834629  .00000346  00000-0  39803-4 0  9994,2 53575  53.2186 314.8195 0001182  76.3529 283.7595 15.08842293 54502,6917.873,95.437,540.556,538.921,0.0
53575.0,STARLINK-4551,PAYLOAD,2023-08-13 12:11:47,15.08843116,0.0001029,53.217,310.0601,84.2496,275.8614,5.3558e-05,5.65e-06,0.0,0 STARLINK-4551,1 53575U 22101BA  23225.50818596  .00000565  00000-0  53558-4 0  9993,2 53575  53.2170 310.0601 0001029  84.2496 275.8614 15.08843116 54662,6917.871,95.437,540.448,539.024,0.0
53575.0,STARLINK-4551,PAYLOAD,2023-08-14 10:27:12,15.08817091,0.0001014,53.2183,305.8972,110.784,249.3261,0.00042094,6.414e-05,0.0,0 STARLINK-4551,1 53575U 22101BA  23226.43555575  .00006414  00000-0  42094-3 0  9992,2 53575  53.2183 305.8972 0001014 110.7840 249.3261 15.08817091 54804,6917.95,95.439,540.517,539.114,0.0
53575.0,STARLINK-4551,PAYLOAD,2023-08-14 12:02:34,15.08833157,0.0001175,53.218,305.6028,52.8207,307.2892,1.9316e-05,2e-07,0.0,0 STARLINK-4551,1 53575U 22101BA  23226.50179285  .00000020  00000-0  19316-4 0  9999,2 53575  53.2180 305.6028 0001175  52.8207 307.2892 15.08833157 54818,6917.901,95.438,540.579,538.953,0.0
53575.0,STARLINK-4551,PAYLOAD,2023-08-15 21:25:40,15.08838858,0.0001084,53.2183,299.3566,93.6516,266.46,0.00010521,1.387e-05,0.0,0 STARLINK-4551,1 53575U 22101BA  23227.89283500  .00001387  00000-0  10521-3 0  9993,2 53575  53.2183 299.3566 0001084  93.6516 266.4600 15.08838858 55022,6917.884,95.438,540.499,538.999,0.0
53575.0,STARLINK-4551,PAYLOAD,2023-08-16 11:44:08,15.08852348,0.000132,53.217,296.6801,96.5049,263.6094,0.00026857,3.99e-05,0.0,0 STARLINK-4551,1 53575U 22101BA  23228.48899025  .00003990  00000-0  26857-3 0  9995,2 53575  53.2170 296.6801 0001320  96.5049 263.6094 15.08852348 55112,6917.843,95.437,540.621,538.794,0.0
53575.0,STARLINK-4551,PAYLOAD,2023-08-16 21:16:27,15.08846027,0.0001156,53.2168,294.8957,87.0034,273.109,0.00039079,5.938e-05,0.0,0 STARLINK-4551,1 53575U 22101BA  23228.88643380  .00005938  00000-0  39079-3 0  9994,2 53575  53.2168 294.8957 0001156  87.0034 273.1090 15.08846027 55172,6917.862,95.437,540.527,538.927,0.0
53575.0,STARLINK-4551,PAYLOAD,2023-08-18 09:50:19,15.0884769,0.0001275,53.2183,288.0561,93.6557,266.4581,2.3457e-05,8.6e-07,0.0,0 STARLINK-4551,1 53575U 22101BA  23230.40994818  .00000086  00000-0  23457-4 0  9993,2 53575  53.2183 288.0561 0001275  93.6557 266.4581 15.08847690 55403,6917.857,95.437,540.604,538.84,0.0
53575.0,STARLINK-4551,PAYLOAD,2023-08-19 09:41:06,15.08843743,0.00011,53.2167,283.5944,86.1289,273.9829,3.7052e-06,-2.29e-06,0.0,0 STARLINK-4551,1 53575U 22101BA  23231.40354776 -.00000229  00000-0  37052-5 0  9994,2 53575  53.2167 283.5944 0001100  86.1289 273.9829 15.08843743 55555,6917.869,95.437,540.495,538.973,0.0
53575.0,STARLINK-4551,PAYLOAD,2023-08-20 03:10:21,15.08834304,0.0001118,53.2163,280.3242,84.8028,275.3092,3.8621e-05,3.27e-06,0.0,0 STARLINK-4551,1 53575U 22101BA  23232.13219287  .00000327  00000-0  38621-4 0  9992,2 53575  53.2163 280.3242 0001118  84.8028 275.3092 15.08834304 55665,6917.898,95.438,540.536,538.989,0.0
53575.0,STARLINK-4551,PAYLOAD,2023-08-21 09:22:40,15.08840847,0.0001258,53.2162,274.6738,83.6231,276.4905,7.1348e-05,8.48e-06,0.0,0 STARLINK-4551,1 53575U 22101BA  23233.39075010  .00000848  00000-0  71348-4 0  9996,2 53575  53.2162 274.6738 0001258  83.6231 276.4905 15.08840847 55853,6917.878,95.438,540.613,538.873,0.0
